ICESAT-2                
1 43613U 18070A   26191.79308638  .00005880  00000+0  21329-3 0  9996
2 43613  92.0087 297.3578 0005777  74.8311 285.3577 15.28300779436064
HYSIS                   
1 43719U 18096A   26191.82853252  .00000957  00000+0  13772-3 0  9995
2 43719  97.9831 258.3900 0001869  85.8488 274.2937 14.78666490410915
KAZSTSAT                
1 43783U 18099AB  26191.04664632  .00001084  00000+0  91755-4 0  9995
2 43783  97.4316 221.9432 0007709   0.8177 359.3058 14.99947199414730
SAUDISAT 5A             
1 43831U 18102A   26191.86858685  .00003552  00000+0  13137-3 0  9996
2 43831  97.3060 252.9947 0010804  57.2893 302.9387 15.28292997419292
SAUDISAT 5B             
1 43833U 18102C   26191.88354733  .00003165  00000+0  11647-3 0  9999
2 43833  97.3169 256.1220 0011560  58.6844 301.5526 15.28537193419419
GAOFEN-10R              
1 44622U 19066A   26191.83580949  .00000635  00000+0  84822-4 0  9996
2 44622  98.0513 145.5883 0007057  64.3678 295.8264 14.83051379365880
CARTOSAT-3              
1 44804U 19081A   26191.86812030  .00001254  00000+0  62513-4 0  9998
2 44804  97.4296 253.3529 0013396  74.8248 285.4467 15.19301599367064
GAOFEN-12 01            
1 44819U 19082A   26191.87050777  .00000203  00000+0  33147-4 0  9992
2 44819  97.8106 197.6253 0001199  52.1377 307.9944 14.80477394357599
CSG-1                   
1 44873U 19092A   26191.81507716  .00000219  00000+0  34134-4 0  9991
2 44873  97.8893  15.0760 0001496  90.7313 269.4072 14.82149065354972
NEMO-HD                 
1 46277U 20061F   26191.83721144  .00007171  00000+0  15356-3 0  9992
2 46277  97.1912 253.5565 0001091  83.1729 276.9644 15.45076287325631
SENTINEL-6A             
1 46984U 20086A   26191.11788431 -.00000069  00000+0 -35327-4 0  9999
2 46984  66.0414  87.4266 0007814 269.9813  90.0306 12.80930082263265
CAS500-1                
1 47932U 21022A   26191.89152662  .00003558  00000+0  16756-3 0  9998
2 47932  97.3876  86.6621 0004728 183.1822 176.9384 15.20152771294365
GAOFEN-12 02            
1 48079U 21026A   26191.88411633  .00000185  00000+0  31245-4 0  9994
2 48079  97.9931 189.9688 0005567 143.6715 216.4876 14.80314076285268
PLEIADES NEO 3          
1 48268U 21034A   26191.88951109  .00000449  00000+0  63685-4 0  9996
2 48268  97.8938 266.3149 0001327  94.7243 265.4122 14.81675422281167
PLEIADES NEO 4          
1 49070U 21073E   26191.85573538  .00000717  00000+0  97690-4 0  9995
2 49070  97.8937 266.2781 0001346  91.5731 268.5636 14.81674401264876
LANDSAT 9               
1 49260U 21088A   26191.13224728  .00000180  00000+0  49962-4 0  9990
2 49260  98.2271 261.0310 0001168  90.1172 270.0160 14.57112869254349
CSG-2                   
1 51444U 22008A   26191.84878767  .00000011  00000+0  79700-5 0  9993
2 51444  97.8896  15.1041 0001515  85.6241 274.5145 14.82147302240092
GAOFEN-12 03            
1 52912U 22069A   26191.85050975  .00000843  00000+0  11800-3 0  9993
2 52912  97.8252  79.1213 0002513  77.8660 282.2833 14.80072383218119
SWOT                    
1 54754U 22173A   26191.78251051  .00000050  00000+0  35373-4 0  9997
2 54754  77.6106   3.4552 0000303  75.1457 284.9728 14.00172065182454
GAOFEN-12 04            
1 57654U 23123A   26191.86933402  .00000519  00000+0  75907-4 0  9998
2 57654  97.9105 109.5345 0003720  59.2975 300.8602 14.79770444156138
PARS 1                  
1 59065U 24039Q   26191.87490991  .00007852  00000+0  16134-3 0  9998
2 59065  97.4830 173.5504 0010330  40.8171 319.3850 15.46226973132304
RESURS-P 4              
1 59371U 24061A   26191.83936729  .00001934  00000+0  64517-4 0  9997
2 59371  97.2754 139.3290 0003240  96.4566 263.7045 15.32264459127382
LEGION 1                
1 59625U 24081A   26191.71321566  .00002209  00000+0  11574-3 0  9995
2 59625  97.5013 269.3204 0007701 288.5225  71.5171 15.16825615121104
LEGION 2                
1 59626U 24081B   26191.74353619  .00002206  00000+0  11559-3 0  9993
2 59626  97.5012 269.4473 0009994 250.9573 109.0578 15.16804692121119
ALOS-4 (DAICHI-4)       
1 60182U 24123A   26191.83002733  .00000799  00000+0  11389-3 0  9993
2 60182  97.9220 288.6666 0001612  97.7245 262.4150 14.79474159109375
LEGION 3                
1 60452U 24146A   26191.59103442  .00002054  00000+0  11981-3 0  9994
2 60452  45.0014 265.0672 0008631 309.9057  50.1062 15.15637578105572
LEGION 4                
1 60453U 24146B   26191.78858791  .00002225  00000+0  12858-3 0  9994
2 60453  45.0026 355.8751 0008987  85.6099 274.5806 15.15657914104450
SENTINEL-2C             
1 60989U 24157A   26191.10961240  .00000041  00000+0  32184-4 0  9999
2 60989  98.5685 265.5666 0000946  98.1407 261.9883 14.30814768 96261
IONOSFERA-M 1           
1 61735U 24199A   26191.75294264  .00000017  00000+0  27178-4 0  9991
2 61735  98.7143  64.6730 0002202  78.6956 281.4469 14.22758496131051
IONOSFERA-M 2           
1 61736U 24199B   26191.78718150  .00000026  00000+0  31021-4 0  9992
2 61736  98.7141  64.6173 0000366 107.3081 252.8137 14.22761904134188
PRSC-EO1                
1 62725U 25012A   26191.86132635  .00004414  00000+0  22186-3 0  9999
2 62725  97.4221 263.8575 0006590 162.5889 197.5572 15.17748538 81783
