OBJECT_NAME,OBJECT_ID,EPOCH,MEAN_MOTION,ECCENTRICITY,INCLINATION,RA_OF_ASC_NODE,ARG_OF_PERICENTER,MEAN_ANOMALY,EPHEMERIS_TYPE,CLASSIFICATION_TYPE,NORAD_CAT_ID,ELEMENT_SET_NO,REV_AT_EPOCH,BSTAR,MEAN_MOTION_DOT,MEAN_MOTION_DDOT
ICESAT-2,2018-070A,2026-07-10T19:02:02.663232,15.28300779,.0005777,92.0087,297.3578,74.8311,285.3577,0,U,43613,999,43606,.21329E-3,.588E-4,0
HYSIS,2018-096A,2026-07-10T19:53:05.209728,14.78666490,.0001869,97.9831,258.3900,85.8488,274.2937,0,U,43719,999,41091,.13772E-3,.957E-5,0
KAZSTSAT,2018-099AB,2026-07-10T01:07:10.242048,14.99947199,.00077099,97.4316,221.9432,0.8177,359.3058,0,U,43783,999,41473,.91754934E-4,.1084E-4,0
SAUDISAT 5A,2018-102A,2026-07-10T20:50:45.903840,15.28292997,.0010804,97.3060,252.9947,57.2893,302.9387,0,U,43831,999,41929,.13137E-3,.3552E-4,0
SAUDISAT 5B,2018-102C,2026-07-10T21:12:18.489312,15.28537193,.001156,97.3169,256.1220,58.6844,301.5526,0,U,43833,999,41941,.11647E-3,.3165E-4,0
GAOFEN-10R,2019-066A,2026-07-10T20:03:33.939936,14.83051379,.0007057,98.0513,145.5883,64.3678,295.8264,0,U,44622,999,36588,.84822E-4,.635E-5,0
CARTOSAT-3,2019-081A,2026-07-10T20:50:05.593920,15.19301599,.0013396,97.4296,253.3529,74.8248,285.4467,0,U,44804,999,36706,.62513E-4,.1254E-4,0
GAOFEN-12 01,2019-082A,2026-07-10T20:53:31.871328,14.80477394,.0001199,97.8106,197.6253,52.1377,307.9944,0,U,44819,999,35759,.33147E-4,.203E-5,0
CSG-1,2019-092A,2026-07-10T19:33:42.666624,14.82149065,.0001496,97.8893,15.0760,90.7313,269.4072,0,U,44873,999,35497,.34134E-4,.219E-5,0
NEMO-HD,2020-061F,2026-07-10T20:05:35.068416,15.45076287,.0001091,97.1912,253.5565,83.1729,276.9644,0,U,46277,999,32563,.15356E-3,.7171E-4,0
SENTINEL-6A,2020-086A,2026-07-10T02:49:45.204384,12.80930082,.00078145,66.0414,87.4266,269.9813,90.0306,0,U,46984,999,26326,-.35327187E-4,-.69E-6,0
CAS500-1,2021-022A,2026-07-10T21:23:47.899968,15.20152771,.0004728,97.3876,86.6621,183.1822,176.9384,0,U,47932,999,29436,.16756E-3,.3558E-4,0
GAOFEN-12 02,2021-026A,2026-07-10T21:13:07.650912,14.80314076,.0005567,97.9931,189.9688,143.6715,216.4876,0,U,48079,999,28526,.31245E-4,.185E-5,0
PLEIADES NEO 3,2021-034A,2026-07-10T21:20:53.758176,14.81675422,.0001327,97.8938,266.3149,94.7243,265.4122,0,U,48268,999,28116,.63685E-4,.449E-5,0
PLEIADES NEO 4,2021-073E,2026-07-10T20:32:15.536832,14.81674401,.0001346,97.8937,266.2781,91.5731,268.5636,0,U,49070,999,26487,.9769E-4,.717E-5,0
LANDSAT 9,2021-088A,2026-07-10T03:10:26.164992,14.57112869,.00011681,98.2271,261.0310,90.1172,270.0160,0,U,49260,999,25434,.49962337E-4,.18E-5,0
CSG-2,2022-008A,2026-07-10T20:22:15.254688,14.82147302,.0001515,97.8896,15.1041,85.6241,274.5145,0,U,51444,999,24009,.797E-5,.11E-6,0
GAOFEN-12 03,2022-069A,2026-07-10T20:24:44.042400,14.80072383,.0002513,97.8252,79.1213,77.8660,282.2833,0,U,52912,999,21811,.118E-3,.843E-5,0
SWOT,2022-173A,2026-07-10T18:46:48.908064,14.00172065,.0000303,77.6106,3.4552,75.1457,284.9728,0,U,54754,999,18245,.35373E-4,.5E-6,0
GAOFEN-12 04,2023-123A,2026-07-10T20:51:50.459328,14.79770444,.000372,97.9105,109.5345,59.2975,300.8602,0,U,57654,999,15613,.75907E-4,.519E-5,0
PARS 1,2024-039Q,2026-07-10T20:59:52.216224,15.46226973,.001033,97.4830,173.5504,40.8171,319.3850,0,U,59065,999,13230,.16134E-3,.7852E-4,0
RESURS-P 4,2024-061A,2026-07-10T20:08:41.333856,15.32264459,.000324,97.2754,139.3290,96.4566,263.7045,0,U,59371,999,12738,.64517E-4,.1934E-4,0
LEGION 1,2024-081A,2026-07-10T17:07:01.833024,15.16825615,.0007701,97.5013,269.3204,288.5225,71.5171,0,U,59625,999,12110,.11574E-3,.2209E-4,0
LEGION 2,2024-081B,2026-07-10T17:50:41.526816,15.16804692,.0009994,97.5012,269.4473,250.9573,109.0578,0,U,59626,999,12111,.11559E-3,.2206E-4,0
ALOS-4 (DAICHI-4),2024-123A,2026-07-10T19:55:14.361312,14.79474159,.0001612,97.9220,288.6666,97.7245,262.4150,0,U,60182,999,10937,.11389E-3,.799E-5,0
LEGION 3,2024-146A,2026-07-10T14:11:05.373888,15.15637578,.0008631,45.0014,265.0672,309.9057,50.1062,0,U,60452,999,10557,.11981E-3,.2054E-4,0
LEGION 4,2024-146B,2026-07-10T18:55:33.995424,15.15657914,.0008987,45.0026,355.8751,85.6099,274.5806,0,U,60453,999,10445,.12858E-3,.2225E-4,0
SENTINEL-2C,2024-157A,2026-07-10T02:37:50.511360,14.30814768,.00009466,98.5685,265.5666,98.1407,261.9883,0,U,60989,999,9626,.32183953E-4,.41E-6,0
IONOSFERA-M 1,2024-199A,2026-07-10T18:04:14.244096,14.22758496,.0002202,98.7143,64.6730,78.6956,281.4469,0,U,61735,999,13105,.27178E-4,.17E-6,0
IONOSFERA-M 2,2024-199B,2026-07-10T18:53:32.481600,14.22761904,.0000366,98.7141,64.6173,107.3081,252.8137,0,U,61736,999,13418,.31021E-4,.26E-6,0
PRSC-EO1,2025-012A,2026-07-10T20:40:18.596640,15.17748538,.000659,97.4221,263.8575,162.5889,197.5572,0,U,62725,999,8178,.22186E-3,.4414E-4,0
